CUTE-1 (CO-55)          
1 27844U 03031E   20297.47071580  .00000057  00000-0  45462-4 0  9991
2 27844  98.6835 303.2798 0010684  49.3056 310.9048 14.22262676898293
CUBESAT XI-IV (CO-57)   
1 27848U 03031J   20297.46430794  .00000041  00000-0  38290-4 0  9994
2 27848  98.6898 303.8394 0010707  60.9591 299.2658 14.21846401898135
CUBESAT XI-V            
1 28895U 05043F   20297.37756546  .00000192  00000-0  45748-4 0  9991
2 28895  98.0284  70.2871 0015761 234.7514 125.2215 14.63812271799329
CUTE-1.7+APD II (CO-65) 
1 32785U 08021C   20297.45916209  .00000336  00000-0  41748-4 0  9992
2 32785  97.5858 279.9285 0014494  71.1118 289.1669 14.88535089676913
AAUSAT-II               
1 32788U 08021F   20297.48170282  .00001126  00000-0  10740-3 0  9996
2 32788  97.4959 296.3234 0011385 354.0588   6.0496 14.95189716678448
DELFI-C3 (DO-64)        
1 32789U 08021G   20297.07889755  .00001655  00000-0  11135-3 0  9990
2 32789  97.4060 335.3534 0010716 233.2485 126.7760 15.08023569681143
SEEDS II (CO-66)        
1 32791U 08021J   20297.43926240  .00000519  00000-0  57597-4 0  9995
2 32791  97.5511 286.0049 0014319  41.2535 318.9763 14.91139195677458
SWISSCUBE               
1 35932U 09051B   20297.48316283  .00000157  00000-0  46352-4 0  9999
2 35932  98.6107 123.9076 0008670  93.8475 266.3713 14.56436719588465
BEESAT-1                
1 35933U 09051C   20297.45911137  .00000125  00000-0  39054-4 0  9992
2 35933  98.6091 125.7489 0006844 104.8532 255.3423 14.56507025588537
ITUPSAT1                
1 35935U 09051E   20297.46036184  .00000106  00000-0  35420-4 0  9997
2 35935  98.6197 125.9313 0009148 105.4091 254.8116 14.55648484588291
TISAT 1                 
1 36799U 10035E   20297.44802561  .00000638  00000-0  69976-4 0  9991
2 36799  98.2025 112.7288 0010966 270.9615  89.0346 14.91454367558005
M-CUBED & EXP-1 PRIME   
1 37855U 11061F   20297.56256723  .00001490  00000-0  80188-4 0  9996
2 37855 101.7268  92.1130 0169883  54.6329 307.0625 15.06663477490499
AEROCUBE 4.5A           
1 38767U 12048K   20297.33958571  .00000576  00000-0  62600-4 0  9993
2 38767  64.6667 196.4236 0134096  89.9447 271.7031 14.92410029 60888
AEROCUBE 4.5B           
1 38768U 12048L   20297.36749212  .00000968  00000-0  87967-4 0  9995
2 38768  64.6665 162.6052 0124243  84.7509 276.7768 14.96130337 61016
STRAND-1                
1 39090U 13009E   20297.50308768  .00000032  00000-0  26320-4 0  9993
2 39090  98.4443 139.0429 0007992 263.6577  96.3698 14.35149133401051
SOMP                    
1 39134U 13015E   20297.24440622  .00002127  00000-0  10293-3 0  9994
2 39134  64.8629 223.1894 0022558 224.4584 135.4735 15.21393477415490
BEESAT-3                
1 39135U 13015F   20297.48650344  .00001489  00000-0  81098-4 0  9997
2 39135  64.8657 247.8451 0026836 222.2993 137.6065 15.18445031414654
BEESAT-2                
1 39136U 13015G   20297.25599663  .00001857  00000-0  99838-4 0  9999
2 39136  64.8748 254.0296 0035186 266.4050  93.3052 15.17847266414902
NEE-01 PEGASO           
1 39151U 13018B   20297.50302596  .00000217  00000-0  35423-4 0  9993
2 39151  97.9767  35.4624 0017980  49.1248 311.1518 14.80216784404619
ESTCUBE 1               
1 39161U 13021C   20297.45308025  .00000168  00000-0  34266-4 0  9994
2 39161  97.9602  17.8783 0009163 181.7443 178.3740 14.72363104400876
POPACS 1                
1 39268U 13055D   20297.30826327  .00005219  00000-0  14237-3 0  9990
2 39268  81.0011 160.9159 0612407 202.1290 155.2407 14.40296223366392
POPACS 2                
1 39269U 13055E   20297.44350533  .00003500  00000-0  10080-3 0  9990
2 39269  81.0168 201.8050 0674347 308.1945  46.0305 14.26143115364225
POPACS 3                
1 39270U 13055F   20297.56244632  .00004811  00000-0  14876-3 0  9990
2 39270  81.0167 225.1225 0708896  14.9595 347.1398 14.17241538343276
ZACUBE-1 (TSHEPISOSAT)  
1 39417U 13066B   20297.43884542  .00000263  00000-0  39287-4 0  9992
2 39417  97.5737 288.3959 0057817 217.1030 142.6181 14.81337819373988
WNISAT-1                
1 39423U 13066H   20297.32448899  .00000109  00000-0  31480-4 0  9994
2 39423  97.7968 210.0562 0174154 216.5347 142.3864 14.53146887366993
TRITON-1                
1 39427U 13066M   20297.41390795  .00000429  00000-0  75768-4 0  9991
2 39427  97.7422 251.3367 0114423  29.4509 331.3079 14.68066978370639
GOMX-1                  
1 39430U 13066Q   20297.60353650  .00000191  00000-0  43249-4 0  9990
2 39430  97.7979 228.4315 0151490 140.4359 220.8024 14.59450688368498
CUBEBUG-2 (LO-74)       
1 39440U 13066AA  20297.47734743  .00000323  00000-0  51833-4 0  9997
2 39440  97.6460 272.9983 0078617 284.9591  74.2926 14.76075358371468
NEE-02 KRYSAOR          
1 39441U 13066AB  20297.44032253  .00000214  00000-0  37552-4 0  9993
2 39441  97.6539 270.4109 0080257 294.8794  64.4088 14.75061819371272
FUNCUBE-1 (AO-73)       
1 39444U 13066AE  20297.49749327  .00000342  00000-0  48127-4 0  9990
2 39444  97.5668 290.7464 0057089 208.3391 151.4715 14.82204258372332
UWE-3                   
1 39446U 13066AG  20297.44983370  .00000281  00000-0  43870-4 0  9997
2 39446  97.6111 280.1073 0068399 251.9587 107.4165 14.78607510371482
AEROCUBE 5A             
1 39465U 13072D   20297.53080287  .00013817  00000-0  10767-2 0  9996
2 39465 120.4963 267.2481 0266519  18.4830 342.5699 14.77649167 60283
AEROCUBE 5B             
1 39466U 13072E   20297.29781186  .00013076  00000-0  86003-3 0  9990
2 39466 120.4858 310.2188 0237348  29.4679 331.9533 14.87825308 60587
BRITE-CA1 (TORONTO)     
1 40020U 14033L   20297.46809074  .00000074  00000-0  20856-4 0  9991
2 40020  97.7317 118.3659 0087982  25.0368 335.5065 14.66666919339526
DUCHIFAT-1              
1 40021U 14033M   20297.39692826  .00000455  00000-0  51829-4 0  9996
2 40021  97.9486 229.4520 0011689 221.5466 138.4864 14.91010807344957
NANOSATC-BR1            
1 40024U 14033Q   20297.55887587  .00000573  00000-0  65023-4 0  9999
2 40024  97.9311 225.5662 0010990 226.1450 133.8860 14.90164541344318
QB50P1                  
1 40025U 14033R   20297.45667143  .00000396  00000-0  47869-4 0  9994
2 40025  97.9167 221.7541 0011107 234.9378 125.0797 14.89213965344145
QB50P2                  
1 40032U 14033Y   20297.54694668  .00000399  00000-0  48737-4 0  9992
2 40032  97.9037 219.0251 0010600 231.2559 128.7711 14.88734954344045
PERSEUS-M2              
1 40037U 14033AD  20297.48892849  .00000157  00000-0  23923-4 0  9993
2 40037  97.8849 212.8409 0012981 250.9573 109.0236 14.86575974343680
PERSEUS-M1              
1 40039U 14033AF  20297.46383585  .00000138  00000-0  21918-4 0  9996
2 40039  97.8805 211.4519 0012838 249.0317 110.9525 14.86196217343587
POLYITAN-1              
1 40042U 14033AJ  20297.54141204  .00000525  00000-0  61830-4 0  9996
2 40042  97.9255 222.4564 0013395 225.6705 134.3414 14.88967176344055
TIGRISAT                
1 40043U 14033AK  20297.14375362  .00000162  00000-0  31251-4 0  9998
2 40043  97.6933 147.1330 0058783 306.8330  52.7496 14.74420545341167
AEROCUBE 6A             
1 40045U 14033AM  20297.50793888  .00000152  00000-0  29143-4 0  9993
2 40045  97.7183 153.5926 0056641 296.3852  63.1550 14.75635250340991
AEROCUBE 6B             
1 40046U 14033AN  20297.51812422  .00000340  00000-0  55931-4 0  9994
2 40046  97.7086 152.7253 0055749 295.3669  64.1775 14.75639091340998
UKUBE-1                 
1 40074U 14037F   20297.44971145  .00000253  00000-0  37354-4 0  9991
2 40074  98.4480 133.4009 0005401  68.8684 291.3110 14.84344365340747
BRITE-PL2 (HEWELIUSZ)   
1 40119U 14049B   20297.25040666  .00000158  00000-0  25170-4 0  9995
2 40119  97.8940  28.2064 0018502  54.5071 305.7866 14.84544599334743
FIREBIRD 4              
1 40378U 15003C   20297.52311454  .00003577  00000-0  13815-3 0  9999
2 40378  99.0856  24.0032 0121715 245.8124 113.0344 15.20561866316764
GRIFEX                  
1 40379U 15003D   20297.21413299  .00001937  00000-0  84046-4 0  9999
2 40379  99.0901  14.7783 0130786 274.6259  84.0041 15.16755201316216
EXOCUBE (CP10)          
1 40380U 15003E   20297.45816594  .00001423  00000-0  66042-4 0  9998
2 40380  99.0962  10.3559 0136026 290.0981  68.5652 15.14654076315923
AEROCUBE 8A             
1 40659U 15025J   20297.61197901  .00031822  00000-0  29430-3 0  9998
2 40659  55.0151  58.3004 0097190 148.3084 212.3856 15.61363095 63541
AEROCUBE 8B             
1 40660U 15025K   20297.49333657  .00031057  00000-0  28364-3 0  9991
2 40660  55.0124  56.3988 0096092 150.2157 210.4400 15.61798097 63543
TIANWANG 1C (TW-1C)     
1 40926U 15051B   20297.53713047  .00046671  00000-0  34863-3 0  9994
2 40926  97.0665 350.5481 0003078 339.9115 129.9087 15.72589454287105
TIANWANG 1A (TW-1A)     
1 40928U 15051D   20297.55586679  .00004036  00000-0  92238-4 0  9997
2 40928  97.1008 322.2569 0012165  79.7054  23.2621 15.43330772285125
EXACTVIEW 9             
1 40936U 15052G   20297.43424820  .00000835  00000-0  27515-4 0  9992
2 40936   6.0025 147.6872 0011128 274.2118  85.6738 14.76605232274163
AEROCUBE 5C             
1 40965U 15058B   20297.47710965  .00000105  00000-0  31739-4 0  9995
2 40965  64.7765 116.1716 0178485  27.5084 333.5328 14.74578772 60187
AEROCUBE 7              
1 40966U 15058C   20297.49866285  .00000158  00000-0  37668-4 0  9990
2 40966  64.7765 114.4033 0177455  27.1627 333.8623 14.74891642 60192
ATHENOXAT 1             
1 41168U 15077C   20296.95700446  .00002472  00000-0  93083-4 0  9996
2 41168  14.9891 205.7763 0011339 104.4873 352.6231 15.14663336268701
GALASSIA                
1 41170U 15077E   20297.35808198  .00002702  00000-0  10406-3 0  9990
2 41170  14.9878 194.2201 0012416 137.4792 222.6492 15.14952223268825
VELOX-II                
1 41171U 15077F   20297.18290730  .00002101  00000-0  80962-4 0  9997
2 41171  14.9907 244.4059 0008606  21.5886 338.4797 15.11887118268361
